{
  "type": "FeatureCollection",
  "features": [
    {
      "type": "Feature",
      "properties": {
        "norad_id": 28054,
        "name": "DMSP 5D-3 F16 (USA 172)",
        "group": "weather",
        "lat": 22.385094609770505,
        "lon": -170.08326658674534,
        "alt_km": 848.1917443631091,
        "timestamp": "2025-12-14T16:47:40.325758+00:00",
        "meta_object_name": "DMSP 5D-3 F16 (USA 172)",
        "meta_object_id": "2003-048A",
        "meta_epoch": "2025-12-14T00:02:05.246304",
        "meta_mean_motion": 14.14424691,
        "meta_eccentricity": 0.00064579,
        "meta_inclination": 99.0046,
        "meta_ra_of_asc_node": 5.4684,
        "meta_arg_of_pericenter": 316.9205,
        "meta_mean_anomaly": 246.4891,
        "meta_ephemeris_type": 0,
        "meta_classification_type": "U",
        "meta_norad_cat_id": 28054,
        "meta_element_set_no": 999,
        "meta_rev_at_epoch": 14330,
        "meta_bstar": 0.00012378994,
        "meta_mean_motion_dot": 1.91e-06,
        "meta_mean_motion_ddot": 0,
        "tle_line1": "1 28054U 03048A   25348.00144961  .00000191  00000+0  12379-3 0  9996",
        "tle_line2": "2 28054  99.0046   5.4684 0006457 316.9205 246.4891 14.14424691143305"
      },
      "geometry": {
        "type": "Point",
        "coordinates": [
          -170.08326658674534,
          22.385094609770505
        ]
      }
    },
    {
      "type": "Feature",
      "properties": {
        "norad_id": 28912,
        "name": "METEOSAT-9 (MSG-2)",
        "group": "weather",
        "lat": -5.067576942379174,
        "lon": 21.597226045360504,
        "alt_km": 35795.694141414715,
        "timestamp": "2025-12-14T16:47:40.325809+00:00",
        "meta_object_name": "METEOSAT-9 (MSG-2)",
        "meta_object_id": "2005-049B",
        "meta_epoch": "2025-12-13T20:30:47.672352",
        "meta_mean_motion": 1.00277243,
        "meta_eccentricity": 0.00035181,
        "meta_inclination": 8.9422,
        "meta_ra_of_asc_node": 55.9671,
        "meta_arg_of_pericenter": 190.0125,
        "meta_mean_anomaly": 190.1961,
        "meta_ephemeris_type": 0,
        "meta_classification_type": "U",
        "meta_norad_cat_id": 28912,
        "meta_element_set_no": 999,
        "meta_rev_at_epoch": 514,
        "meta_bstar": 0,
        "meta_mean_motion_dot": 1.35e-06,
        "meta_mean_motion_ddot": 0,
        "tle_line1": "1 28912U 05049B   25347.85471843  .00000135  00000+0  00000+0 0  9998",
        "tle_line2": "2 28912   8.9422  55.9671 0003518 190.0125 190.1961  1.00277243  5140"
      },
      "geometry": {
        "type": "Point",
        "coordinates": [
          21.597226045360504,
          -5.067576942379174
        ]
      }
    },
    {
      "type": "Feature",
      "properties": {
        "norad_id": 29522,
        "name": "DMSP 5D-3 F17 (USA 191)",
        "group": "weather",
        "lat": 75.98575189260214,
        "lon": -147.90629656329497,
        "alt_km": 838.566894992834,
        "timestamp": "2025-12-14T16:47:40.325827+00:00",
        "meta_object_name": "DMSP 5D-3 F17 (USA 191)",
        "meta_object_id": "2006-050A",
        "meta_epoch": "2025-12-13T23:20:48.061536",
        "meta_mean_motion": 14.14920248,
        "meta_eccentricity": 0.00094618,
        "meta_inclination": 98.7393,
        "meta_ra_of_asc_node": 353.3362,
        "meta_arg_of_pericenter": 221.0522,
        "meta_mean_anomaly": 138.9941,
        "meta_ephemeris_type": 0,
        "meta_classification_type": "U",
        "meta_norad_cat_id": 29522,
        "meta_element_set_no": 999,
        "meta_rev_at_epoch": 98622,
        "meta_bstar": 0.00014983623,
        "meta_mean_motion_dot": 2.46e-06,
        "meta_mean_motion_ddot": 0,
        "tle_line1": "1 29522U 06050A   25347.97277849  .00000246  00000+0  14984-3 0  9995",
        "tle_line2": "2 29522  98.7393 353.3362 0009461 221.0522 138.9941 14.14920248986227"
      },
      "geometry": {
        "type": "Point",
        "coordinates": [
          -147.90629656329497,
          75.98575189260214
        ]
      }
    },
    {
      "type": "Feature",
      "properties": {
        "norad_id": 32958,
        "name": "FENGYUN 3A",
        "group": "weather",
        "lat": -27.133862874996918,
        "lon": 103.70045525562911,
        "alt_km": 833.3828678179789,
        "timestamp": "2025-12-14T16:47:40.325842+00:00",
        "meta_object_name": "FENGYUN 3A",
        "meta_object_id": "2008-026A",
        "meta_epoch": "2025-12-13T19:31:11.426016",
        "meta_mean_motion": 14.19515118,
        "meta_eccentricity": 0.00078732,
        "meta_inclination": 98.6698,
        "meta_ra_of_asc_node": 287.3175,
        "meta_arg_of_pericenter": 307.0289,
        "meta_mean_anomaly": 53.0167,
        "meta_ephemeris_type": 0,
        "meta_classification_type": "U",
        "meta_norad_cat_id": 32958,
        "meta_element_set_no": 999,
        "meta_rev_at_epoch": 90910,
        "meta_bstar": 0.00010749827,
        "meta_mean_motion_dot": 1.83e-06,
        "meta_mean_motion_ddot": 0,
        "tle_line1": "1 32958U 08026A   25347.81332669  .00000183  00000+0  10750-3 0  9999",
        "tle_line2": "2 32958  98.6698 287.3175 0007873 307.0289  53.0167 14.19515118909109"
      },
      "geometry": {
        "type": "Point",
        "coordinates": [
          103.70045525562911,
          -27.133862874996918
        ]
      }
    },
    {
      "type": "Feature",
      "properties": {
        "norad_id": 35491,
        "name": "GOES 14",
        "group": "weather",
        "lat": 0.769471333573952,
        "lon": -135.4663074135791,
        "alt_km": 35832.53880529485,
        "timestamp": "2025-12-14T16:47:40.325856+00:00",
        "meta_object_name": "GOES 14",
        "meta_object_id": "2009-033A",
        "meta_epoch": "2025-12-13T16:20:56.601888",
        "meta_mean_motion": 1.00096218,
        "meta_eccentricity": 7.106e-05,
        "meta_inclination": 1.2052,
        "meta_ra_of_asc_node": 85.3881,
        "meta_arg_of_pericenter": 164.6316,
        "meta_mean_anomaly": 327.4765,
        "meta_ephemeris_type": 0,
        "meta_classification_type": "U",
        "meta_norad_cat_id": 35491,
        "meta_element_set_no": 999,
        "meta_rev_at_epoch": 473,
        "meta_bstar": 0,
        "meta_mean_motion_dot": -1.3e-07,
        "meta_mean_motion_ddot": 0,
        "tle_line1": "1 35491U 09033A   25347.68121067 -.00000013  00000+0  00000+0 0  9992",
        "tle_line2": "2 35491   1.2052  85.3881 0000710 164.6316 327.4765  1.00096218  4737"
      },
      "geometry": {
        "type": "Point",
        "coordinates": [
          -135.4663074135791,
          0.769471333573952
        ]
      }
    },
    {
      "type": "Feature",
      "properties": {
        "norad_id": 35951,
        "name": "DMSP 5D-3 F18 (USA 210)",
        "group": "weather",
        "lat": -32.36706180138688,
        "lon": -29.220438668927997,
        "alt_km": 849.1368360522865,
        "timestamp": "2025-12-14T16:47:40.325869+00:00",
        "meta_object_name": "DMSP 5D-3 F18 (USA 210)",
        "meta_object_id": "2009-057A",
        "meta_epoch": "2025-12-13T22:16:42.633408",
        "meta_mean_motion": 14.14769855,
        "meta_eccentricity": 0.0012043,
        "meta_inclination": 98.8835,
        "meta_ra_of_asc_node": 324.323,
        "meta_arg_of_pericenter": 59.6092,
        "meta_mean_anomaly": 300.627,
        "meta_ephemeris_type": 0,
        "meta_classification_type": "U",
        "meta_norad_cat_id": 35951,
        "meta_element_set_no": 999,
        "meta_rev_at_epoch": 83339,
        "meta_bstar": 0.00019744934,
        "meta_mean_motion_dot": 3.36e-06,
        "meta_mean_motion_ddot": 0,
        "tle_line1": "1 35951U 09057A   25347.92827122  .00000336  00000+0  19745-3 0  9998",
        "tle_line2": "2 35951  98.8835 324.3230 0012043  59.6092 300.6270 14.14769855833398"
      },
      "geometry": {
        "type": "Point",
        "coordinates": [
          -29.220438668927997,
          -32.36706180138688
        ]
      }
    },
    {
      "type": "Feature",
      "properties": {
        "norad_id": 36411,
        "name": "EWS-G2 (GOES 15)",
        "group": "weather",
        "lat": -0.5995959833535981,
        "lon": 36.96586845737705,
        "alt_km": 35803.69013733178,
        "timestamp": "2025-12-14T16:47:40.325882+00:00",
        "meta_object_name": "EWS-G2 (GOES 15)",
        "meta_object_id": "2010-008A",
        "meta_epoch": "2025-12-13T22:18:09.691776",
        "meta_mean_motion": 1.00270142,
        "meta_eccentricity": 0.00056517,
        "meta_inclination": 0.8171,
        "meta_ra_of_asc_node": 86.0696,
        "meta_arg_of_pericenter": 175.2179,
        "meta_mean_anomaly": 217.506,
        "meta_ephemeris_type": 0,
        "meta_classification_type": "U",
        "meta_norad_cat_id": 36411,
        "meta_element_set_no": 999,
        "meta_rev_at_epoch": 5778,
        "meta_bstar": 0,
        "meta_mean_motion_dot": 5.4e-07,
        "meta_mean_motion_ddot": 0,
        "tle_line1": "1 36411U 10008A   25347.92927884  .00000054  00000+0  00000+0 0  9991",
        "tle_line2": "2 36411   0.8171  86.0696 0005651 175.2179 217.5060  1.00270142 57783"
      },
      "geometry": {
        "type": "Point",
        "coordinates": [
          36.96586845737705,
          -0.5995959833535981
        ]
      }
    }
  ]
}